VIZARD-METEO (RS38S)    
1 57189U 23091Z   25317.84009216  .00046604  00000+0  16889-2 0  9996
2 57189  97.5411  18.8823 0009826 113.6209 246.6063 15.28172790131718
NANOZOND 1 (RS49S)      
1 57190U 23091AA  25317.84006291  .00149523  00000+0  27408-2 0  9991
2 57190  97.5351  26.3780 0005229  98.5288 261.6555 15.48737025132220
POLYTECH-UNIVERSE 3 (R*)
1 57191U 23091AB  25317.84053383  .00019582  00000+0  10049-2 0  9990
2 57191  97.5386  12.0117 0017100 153.4134 206.7979 15.16436470131287
UTMN 2 (RS27S)          
1 57203U 23091AP  25317.89227995  .00037800  00000+0  14763-2 0  9991
2 57203  97.5409  17.7327 0010586 116.9437 243.2884 15.25737394131643
ARCCUBE 1 (RS25S)       
1 57205U 23091AR  25317.64833170  .01051889  00000+0  35356-2 0  9999
2 57205  97.5163  32.1617 0002933 298.0774  62.0200 15.87617409132617
KUZGTU 1 (RS47S)        
1 57217U 23091AV  25317.84646500  .00038371  00000+0  15798-2 0  9991
2 57217  97.5392  15.6588 0013549 131.5813 228.6588 15.23930923131513
SONATE-2                
1 59112U 24043Q   25317.61846579  .00048752  00000+0  11003-2 0  9997
2 59112  97.5313  92.8336 0008815 270.7342  89.2895 15.43026913 94486
MESAT1                  
1 60209U 24125G   25317.83815271  .00051579  00000+0  11258-2 0  9999
2 60209  97.2564 168.2348 0014054 294.1442  65.8336 15.43946030 76148
OOV-CUBE (TUBSAT-30)    
1 60240U 24128F   25317.84404208  .00008371  00000+0  63805-3 0  9990
2 60240  61.9954 255.7406 0058842  88.1803 272.6025 15.01361430 73763
COLIBRI-S (RS67S)       
1 61746U 24199M   25317.87590928  .00046998  00000+0  12575-2 0  9992
2 61746  97.3292 185.8283 0010470 352.0627   8.0451 15.37844636104213
HORS 3 (RS81S)          
1 61753U 24199U   25317.86365293  .00073885  00000+0  17949-2 0  9999
2 61753  97.3264 186.3015 0008994   2.2993 357.8293 15.40694100104253
HORS 4 (RS82S)          
1 61754U 24199V   25317.89372683  .00078887  00000+0  18224-2 0  9998
2 61754  97.3249 186.6941 0009130   0.3282 359.7969 15.42190218104288
HORIZON (RS59S)         
1 61757U 24199Y   25317.85265682  .00131774  00000+0  23383-2 0  9994
2 61757  97.3257 188.3785 0007769 349.2746  10.8339 15.49717471104381
ARCTICSAT 1 (RS74S)     
1 61762U 24199AD  25317.82514985  .00120346  00000+0  22209-2 0  9999
2 61762  97.3261 188.2579 0008051 346.6236  13.4800 15.48635589104371
SIT-2086                
1 61764U 24199AF  25317.87254312  .00048000  00000+0  11532-2 0  9994
2 61764  97.3263 187.0514 0007792 348.5805  11.5264 15.41158625101144
MORDOVIA-IOT (RS50S)    
1 61765U 24199AG  25317.86902926  .00219592  00000+0  25739-2 0  9995
2 61765  97.3196 190.3921 0005501 351.5224   8.5940 15.60773413101375
RUZAEVKA 390 (RS44S)    
1 61766U 24199AH  25317.86084637  .00181274  00000+0  25517-2 0  9995
2 61766  97.3216 189.6426 0006080 348.9458  11.1662 15.56006335101325
HYPERVIEW 1G (RS66S)    
1 61772U 24199AP  25317.81618138  .00102368  00000+0  21483-2 0  9991
2 61772  97.3246 186.9490 0011118 358.8860   1.2362 15.44932875101142
ALTAIR (RS65S)          
1 61779U 24199AW  25317.87715395  .00027582  00000+0  89036-3 0  9990
2 61779  97.3292 183.9571 0014760   5.7034 354.4373 15.31990810104095
ASRTU-1 (AO-123)        
1 61781U 24199AY  25317.85922701  .00026161  00000+0  86619-3 0  9998
2 61781  97.3282 183.6378 0015249   6.4559 353.6875 15.31176569100925
TUSUR GO (RS78S)        
1 61782U 24199AZ  25317.90324444  .00133662  00000+0  24407-2 0  9996
2 61782  97.3233 187.5688 0010610 358.2660   1.8553 15.48863895101195
SAMSAT-IONOSPHERE (RS7*)
1 61784U 24199BB  25317.86764366  .00079724  00000+0  19242-2 0  9993
2 61784  97.3261 186.0052 0012821   0.4779 359.6477 15.40822815104236
RTU MIREA 1 (RS51S)     
1 61785U 24199BC  25317.83958352  .00084481  00000+0  19738-2 0  9997
2 61785  97.3258 186.1865 0012408 359.5152   0.6081 15.41790583101092
HADES-R                 
1 62690U 25009CK  25317.20525541  .00230096  00000+0  40904-2 0  9999
2 62690  97.3932  38.9123 0003118 249.7283 110.3633 15.49323987 46190
TEVEL2-4                
1 63213U 25052D   25317.28057424  .00040640  00000+0  15919-2 0  9999
2 63213  97.4108 209.3442 0004292 121.7681 238.3976 15.25664801 37098
TEVEL2-5                
1 63214U 25052E   25316.43205399  .00049478  00000+0  19437-2 0  9999
2 63214  97.4111 208.4947 0004209 124.1178 236.0460 15.25517699 36969
TEVEL2-6                
1 63215U 25052F   25317.22553808  .00040981  00000+0  16106-2 0  9999
2 63215  97.4111 209.2701 0004320 122.0525 238.1133 15.25551694 37081
TEVEL2-1                
1 63217U 25052H   25317.19658870  .00041552  00000+0  16477-2 0  9998
2 63217  97.4081 209.0763 0003917 131.1934 228.9642 15.25248713 37077
TEVEL2-3                
1 63218U 25052J   25317.13055403  .00034057  00000+0  13523-2 0  9997
2 63218  97.4083 209.0153 0003872 135.8736 224.2812 15.25251467 37061
TEVEL2-2                
1 63219U 25052K   25317.65660005  .00039072  00000+0  15482-2 0  9993
2 63219  97.4081 209.5317 0003931 133.1750 226.9817 15.25289598 37149
TEVEL2-9                
1 63237U 25052AD  25317.65745766  .00036734  00000+0  15185-2 0  9993
2 63237  97.4147 209.2792 0006939 167.1336 193.0080 15.23866678 37115
TEVEL2-7                
1 63238U 25052AE  25317.60303185  .00034564  00000+0  14351-2 0  9997
2 63238  97.4146 209.2053 0007011 167.4719 192.6693 15.23731550 37109
TEVEL2-8                
1 63239U 25052AF  25317.47681719  .00036160  00000+0  15026-2 0  9999
2 63239  97.4151 209.0662 0006988 167.5379 192.6032 15.23694003 37080
HADES-ICM               
1 63492U 25052BN  25317.66370227  .00099492  00000+0  28747-2 0  9991
2 63492  97.4092 210.9381 0008892 157.6077 202.5556 15.35220137 37230
INNOSAT 16 (RS92S7)     
1 64878U 25155C   25317.57160279  .00010461  00000+0  45495-3 0  9997
2 64878  97.4291 281.2710 0009864 216.2722 143.7847 15.22405810 47831
GEOSCAN 6 (RS92S6)      
1 64879U 25155D   25317.60900070  .00022368  00000+0  90591-3 0  9999
2 64879  97.4294 281.5439 0007114 205.8650 154.2233 15.24660818 47857
GEOSCAN 1 (RS92S1)      
1 64880U 25155E   25317.60296896  .00025388  00000+0  10218-2 0  9997
2 64880  97.4295 281.5565 0006984 206.5465 153.5416 15.24847376 47857
239ALFEROV (RS61S)      
1 64881U 25155F   25317.57915355  .00031534  00000+0  12419-2 0  9997
2 64881  97.4307 281.6054 0006593 204.9099 155.1822 15.25529746 47855
GEOSCAN 2 (RS92S2)      
1 64890U 25155Q   25317.83663103  .00021840  00000+0  87005-3 0  9990
2 64890  97.4294 281.8454 0006837 188.2583 171.8543 15.25221465 47895
GEOSCAN 5 (RS92S5)      
1 64891U 25155R   25317.87841821  .00026980  00000+0  10516-2 0  9992
2 64891  97.4299 281.9502 0005121 208.7337 151.3620 15.25916867 47904
GEOSCAN 4 (RS92S4)      
1 64892U 25155S   25317.87665174  .00027588  00000+0  10735-2 0  9996
2 64892  97.4301 281.9552 0005106 209.7899 150.3050 15.25968549 47901
GEOSCAN 3 (RS92S3)      
1 64893U 25155T   25317.85844856  .00031562  00000+0  12073-2 0  9995
2 64893  97.4297 281.9751 0004707 212.3550 147.7400 15.26510712 47902
INNOSAT 3 (RS92S0)      
1 64894U 25155U   25317.87624488  .00043964  00000+0  15894-2 0  9998
2 64894  97.4285 282.0981 0003867 207.9662 152.1370 15.28303595 47915
